[{"OBJECT_NAME":"SL-16 R/B","OBJECT_ID":"1993-059B","EPOCH":"2026-03-10T19:37:50.587104","MEAN_MOTION":14.17231475,"ECCENTRICITY":0.0018483,"INCLINATION":70.9928,"RA_OF_ASC_NODE":8.7465,"ARG_OF_PERICENTER":214.9406,"MEAN_ANOMALY":145.0506,"EPHEMERIS_TYPE":0,"CLASSIFICATION_TYPE":"U","NORAD_CAT_ID":22803,"ELEMENT_SET_NO":999,"REV_AT_EPOCH":67969,"BSTAR":-4.1224e-5,"MEAN_MOTION_DOT":-1.31e-6,"MEAN_MOTION_DDOT":0},{"OBJECT_NAME":"ARIANE 40 R/B","OBJECT_ID":"1993-061H","EPOCH":"2026-03-10T19:34:50.445696","MEAN_MOTION":14.3286157,"ECCENTRICITY":0.000958,"INCLINATION":98.4914,"RA_OF_ASC_NODE":138.6813,"ARG_OF_PERICENTER":281.3577,"MEAN_ANOMALY":78.6531,"EPHEMERIS_TYPE":0,"CLASSIFICATION_TYPE":"U","NORAD_CAT_ID":22830,"ELEMENT_SET_NO":999,"REV_AT_EPOCH":69426,"BSTAR":9.8313e-5,"MEAN_MOTION_DOT":2.25e-6,"MEAN_MOTION_DDOT":0},{"OBJECT_NAME":"COSMOS 2278","OBJECT_ID":"1994-023A","EPOCH":"2026-03-10T17:30:10.598112","MEAN_MOTION":14.14379218,"ECCENTRICITY":0.0008119,"INCLINATION":71.0553,"RA_OF_ASC_NODE":172.9226,"ARG_OF_PERICENTER":11.0961,"MEAN_ANOMALY":349.0339,"EPHEMERIS_TYPE":0,"CLASSIFICATION_TYPE":"U","NORAD_CAT_ID":23087,"ELEMENT_SET_NO":999,"REV_AT_EPOCH":64495,"BSTAR":6.3043e-5,"MEAN_MOTION_DOT":7.4e-7,"MEAN_MOTION_DDOT":0},{"OBJECT_NAME":"SL-16 R/B","OBJECT_ID":"1994-023B","EPOCH":"2026-03-10T10:07:25.697280","MEAN_MOTION":14.15011602,"ECCENTRICITY":0.0005711,"INCLINATION":70.9986,"RA_OF_ASC_NODE":69.3494,"ARG_OF_PERICENTER":284.9255,"MEAN_ANOMALY":75.1235,"EPHEMERIS_TYPE":0,"CLASSIFICATION_TYPE":"U","NORAD_CAT_ID":23088,"ELEMENT_SET_NO":999,"REV_AT_EPOCH":64619,"BSTAR":-9.8609e-5,"MEAN_MOTION_DOT":-2.39e-6,"MEAN_MOTION_DDOT":0},{"OBJECT_NAME":"SL-16 R/B","OBJECT_ID":"1994-074B","EPOCH":"2026-03-10T14:46:10.824384","MEAN_MOTION":14.79409195,"ECCENTRICITY":0.000587,"INCLINATION":97.7109,"RA_OF_ASC_NODE":100.3955,"ARG_OF_PERICENTER":206.8763,"MEAN_ANOMALY":269.4051,"EPHEMERIS_TYPE":0,"CLASSIFICATION_TYPE":"U","NORAD_CAT_ID":23343,"ELEMENT_SET_NO":999,"REV_AT_EPOCH":68738,"BSTAR":8.4839e-5,"MEAN_MOTION_DOT":5.84e-6,"MEAN_MOTION_DDOT":0},{"OBJECT_NAME":"SL-16 R/B","OBJECT_ID":"1994-077B","EPOCH":"2026-03-10T19:51:06.374304","MEAN_MOTION":14.15561339,"ECCENTRICITY":0.0003035,"INCLINATION":70.9853,"RA_OF_ASC_NODE":350.0963,"ARG_OF_PERICENTER":210.5769,"MEAN_ANOMALY":149.5177,"EPHEMERIS_TYPE":0,"CLASSIFICATION_TYPE":"U","NORAD_CAT_ID":23405,"ELEMENT_SET_NO":999,"REV_AT_EPOCH":61639,"BSTAR":3.7364e-5,"MEAN_MOTION_DOT":2.5e-7,"MEAN_MOTION_DDOT":0},{"OBJECT_NAME":"ARIANE 40+ R/B","OBJECT_ID":"1995-021B","EPOCH":"2026-03-10T03:47:42.690336","MEAN_MOTION":14.39772837,"ECCENTRICITY":0.00076631,"INCLINATION":98.4495,"RA_OF_ASC_NODE":140.6344,"ARG_OF_PERICENTER":135.18,"MEAN_ANOMALY":254.0412,"EPHEMERIS_TYPE":0,"CLASSIFICATION_TYPE":"U","NORAD_CAT_ID":23561,"ELEMENT_SET_NO":999,"REV_AT_EPOCH":61931,"BSTAR":0.00012658114,"MEAN_MOTION_DOT":3.53e-6,"MEAN_MOTION_DDOT":0},{"OBJECT_NAME":"SL-16 R/B","OBJECT_ID":"1995-058B","EPOCH":"2026-03-10T11:32:27.349440","MEAN_MOTION":14.15495797,"ECCENTRICITY":0.001076,"INCLINATION":71.0221,"RA_OF_ASC_NODE":178.594,"ARG_OF_PERICENTER":124.3889,"MEAN_ANOMALY":235.8254,"EPHEMERIS_TYPE":0,"CLASSIFICATION_TYPE":"U","NORAD_CAT_ID":23705,"ELEMENT_SET_NO":999,"REV_AT_EPOCH":56796,"BSTAR":0.00018985,"MEAN_MOTION_DOT":3.24e-6,"MEAN_MOTION_DDOT":0},{"OBJECT_NAME":"SL-16 R/B","OBJECT_ID":"1996-051B","EPOCH":"2026-03-10T17:34:54.193152","MEAN_MOTION":14.12415984,"ECCENTRICITY":0.0015026,"INCLINATION":70.7603,"RA_OF_ASC_NODE":173.0311,"ARG_OF_PERICENTER":146.5256,"MEAN_ANOMALY":213.6817,"EPHEMERIS_TYPE":0,"CLASSIFICATION_TYPE":"U","NORAD_CAT_ID":24298,"ELEMENT_SET_NO":999,"REV_AT_EPOCH":52179,"BSTAR":8.1415e-5,"MEAN_MOTION_DOT":1.01e-6,"MEAN_MOTION_DDOT":0},{"OBJECT_NAME":"ORBVIEW 2 (SEASTAR)","OBJECT_ID":"1997-037A","EPOCH":"2026-03-10T11:07:19.691040","MEAN_MOTION":14.35495696,"ECCENTRICITY":0.0003083,"INCLINATION":98.857,"RA_OF_ASC_NODE":233.7957,"ARG_OF_PERICENTER":70.5363,"MEAN_ANOMALY":289.6155,"EPHEMERIS_TYPE":0,"CLASSIFICATION_TYPE":"U","NORAD_CAT_ID":24883,"ELEMENT_SET_NO":999,"REV_AT_EPOCH":50858,"BSTAR":0.00015111,"MEAN_MOTION_DOT":3.88e-6,"MEAN_MOTION_DDOT":0},{"OBJECT_NAME":"SL-16 R/B","OBJECT_ID":"1998-043G","EPOCH":"2026-03-10T10:23:51.249984","MEAN_MOTION":14.26050082,"ECCENTRICITY":0.0010183,"INCLINATION":98.8253,"RA_OF_ASC_NODE":22.8019,"ARG_OF_PERICENTER":18.3175,"MEAN_ANOMALY":341.837,"EPHEMERIS_TYPE":0,"CLASSIFICATION_TYPE":"U","NORAD_CAT_ID":25400,"ELEMENT_SET_NO":999,"REV_AT_EPOCH":43909,"BSTAR":6.4612e-5,"MEAN_MOTION_DOT":1.09e-6,"MEAN_MOTION_DDOT":0},{"OBJECT_NAME":"SL-16 R/B","OBJECT_ID":"1998-045B","EPOCH":"2026-03-10T16:52:45.994368","MEAN_MOTION":14.1619047,"ECCENTRICITY":0.0006748,"INCLINATION":71.012,"RA_OF_ASC_NODE":179.4425,"ARG_OF_PERICENTER":6.8669,"MEAN_ANOMALY":353.2546,"EPHEMERIS_TYPE":0,"CLASSIFICATION_TYPE":"U","NORAD_CAT_ID":25407,"ELEMENT_SET_NO":999,"REV_AT_EPOCH":42724,"BSTAR":0.00013985,"MEAN_MOTION_DOT":2.29e-6,"MEAN_MOTION_DDOT":0},{"OBJECT_NAME":"ISS (ZARYA)","OBJECT_ID":"1998-067A","EPOCH":"2026-03-10T11:33:06.281280","MEAN_MOTION":15.48562436,"ECCENTRICITY":0.0007951,"INCLINATION":51.6323,"RA_OF_ASC_NODE":68.4424,"ARG_OF_PERICENTER":177.3714,"MEAN_ANOMALY":182.7318,"EPHEMERIS_TYPE":0,"CLASSIFICATION_TYPE":"U","NORAD_CAT_ID":25544,"ELEMENT_SET_NO":999,"REV_AT_EPOCH":55645,"BSTAR":0.00017349,"MEAN_MOTION_DOT":8.982e-5,"MEAN_MOTION_DDOT":0},{"OBJECT_NAME":"CZ-4B R/B","OBJECT_ID":"1999-025C","EPOCH":"2026-03-10T21:16:50.467008","MEAN_MOTION":14.18265496,"ECCENTRICITY":0.0036684,"INCLINATION":98.6624,"RA_OF_ASC_NODE":114.1399,"ARG_OF_PERICENTER":343.1594,"MEAN_ANOMALY":189.8649,"EPHEMERIS_TYPE":0,"CLASSIFICATION_TYPE":"U","NORAD_CAT_ID":25732,"ELEMENT_SET_NO":999,"REV_AT_EPOCH":38833,"BSTAR":4.3619e-5,"MEAN_MOTION_DOT":4.7e-7,"MEAN_MOTION_DDOT":0},{"OBJECT_NAME":"OKEAN-O","OBJECT_ID":"1999-039A","EPOCH":"2026-03-10T03:00:11.122272","MEAN_MOTION":14.80335846,"ECCENTRICITY":0.00012547,"INCLINATION":97.9441,"RA_OF_ASC_NODE":129.0122,"ARG_OF_PERICENTER":70.1592,"MEAN_ANOMALY":289.9755,"EPHEMERIS_TYPE":0,"CLASSIFICATION_TYPE":"U","NORAD_CAT_ID":25860,"ELEMENT_SET_NO":999,"REV_AT_EPOCH":43445,"BSTAR":0.00011093537,"MEAN_MOTION_DOT":7.94e-6,"MEAN_MOTION_DDOT":0},{"OBJECT_NAME":"SL-16 R/B","OBJECT_ID":"1999-039B","EPOCH":"2026-03-10T04:07:50.336832","MEAN_MOTION":14.81732333,"ECCENTRICITY":0.00135229,"INCLINATION":97.9966,"RA_OF_ASC_NODE":128.2682,"ARG_OF_PERICENTER":254.3522,"MEAN_ANOMALY":105.6199,"EPHEMERIS_TYPE":0,"CLASSIFICATION_TYPE":"U","NORAD_CAT_ID":25861,"ELEMENT_SET_NO":999,"REV_AT_EPOCH":43693,"BSTAR":9.6211642e-5,"MEAN_MOTION_DOT":7.05e-6,"MEAN_MOTION_DDOT":0},{"OBJECT_NAME":"DELTA 2 R/B","OBJECT_ID":"1999-041E","EPOCH":"2026-03-10T00:11:40.599456","MEAN_MOTION":14.11838777,"ECCENTRICITY":0.05024086,"INCLINATION":51.7624,"RA_OF_ASC_NODE":300.0088,"ARG_OF_PERICENTER":349.3726,"MEAN_ANOMALY":9.6894,"EPHEMERIS_TYPE":0,"CLASSIFICATION_TYPE":"U","NORAD_CAT_ID":25876,"ELEMENT_SET_NO":999,"REV_AT_EPOCH":36307,"BSTAR":0.00024629377,"MEAN_MOTION_DOT":1.293e-5,"MEAN_MOTION_DDOT":0}]
