SL-16 R/B               
1 22803U 93059B   26069.81794661 -.00000131  00000+0 -41224-4 0  9999
2 22803  70.9928   8.7465 0018483 214.9406 145.0506 14.17231475679695
ARIANE 40 R/B           
1 22830U 93061H   26069.81586164  .00000225  00000+0  98313-4 0  9992
2 22830  98.4914 138.6813 0009580 281.3577  78.6531 14.32861570694261
COSMOS 2278             
1 23087U 94023A   26069.72928933  .00000074  00000+0  63043-4 0  9994
2 23087  71.0553 172.9226 0008119  11.0961 349.0339 14.14379218644958
SL-16 R/B               
1 23088U 94023B   26069.42182520 -.00000239  00000+0 -98609-4 0  9997
2 23088  70.9986  69.3494 0005711 284.9255  75.1235 14.15011602646196
SL-16 R/B               
1 23343U 94074B   26069.61540306  .00000584  00000+0  84839-4 0  9999
2 23343  97.7109 100.3955 0005870 206.8763 269.4051 14.79409195687383
SL-16 R/B               
1 23405U 94077B   26069.82715711  .00000025  00000+0  37364-4 0  9999
2 23405  70.9853 350.0963 0003035 210.5769 149.5177 14.15561339616392
ARIANE 40+ R/B          
1 23561U 95021B   26069.15813299  .00000353  00000+0  12658-3 0  9990
2 23561  98.4495 140.6344 0007663 135.1800 254.0412 14.39772837619319
SL-16 R/B               
1 23705U 95058B   26069.48087210  .00000324  00000+0  18985-3 0  9999
2 23705  71.0221 178.5940 0010760 124.3889 235.8254 14.15495797567969
SL-16 R/B               
1 24298U 96051B   26069.73257168  .00000101  00000+0  81415-4 0  9992
2 24298  70.7603 173.0311 0015026 146.5256 213.6817 14.12415984521790
ORBVIEW 2 (SEASTAR)     
1 24883U 97037A   26069.46342235  .00000388  00000+0  15111-3 0  9993
2 24883  98.8570 233.7957 0003083  70.5363 289.6155 14.35495696508582
SL-16 R/B               
1 25400U 98043G   26069.43323206  .00000109  00000+0  64612-4 0  9993
2 25400  98.8253  22.8019 0010183  18.3175 341.8370 14.26050082439097
SL-16 R/B               
1 25407U 98045B   26069.70331012  .00000229  00000+0  13985-3 0  9995
2 25407  71.0120 179.4425 0006748   6.8669 353.2546 14.16190470427243
ISS (ZARYA)             
1 25544U 98067A   26069.48132270  .00008982  00000+0  17349-3 0  9993
2 25544  51.6323  68.4424 0007951 177.3714 182.7318 15.48562436556451
CZ-4B R/B               
1 25732U 99025C   26069.88669522  .00000047  00000+0  43619-4 0  9990
2 25732  98.6624 114.1399 0036684 343.1594 189.8649 14.18265496388336
OKEAN-O                 
1 25860U 99039A   26069.12512873  .00000794  00000+0  11094-3 0  9990
2 25860  97.9441 129.0122 0001254  70.1592 289.9755 14.80335846434457
SL-16 R/B               
1 25861U 99039B   26069.17211038  .00000705  00000+0  96212-4 0  9993
2 25861  97.9966 128.2682 0013522 254.3522 105.6199 14.81732333436936
DELTA 2 R/B             
1 25876U 99041E   26069.00810879  .00001293  00000+0  24629-3 0  9997
2 25876  51.7624 300.0088 0502408 349.3726   9.6894 14.11838777363079
